{"type": "FeatureCollection", "features": [{"type": "Feature", "properties": {"norad_id": 28054, "name": "DMSP 5D-3 F16 (USA 172)", "group": "weather", "lat": -63.972354432571564, "lon": 30.77820640354903, "alt_km": 846.8782259906075, "timestamp": "2025-12-20T07:33:50.443286+00:00", "meta": {"OBJECT_NAME": "DMSP 5D-3 F16 (USA 172)", "OBJECT_ID": "2003-048A", "EPOCH": "2025-12-19T22:00:09.822240", "MEAN_MOTION": 14.14426642, "ECCENTRICITY": 0.00063034, "INCLINATION": 99.0039, "RA_OF_ASC_NODE": 11.4301, "ARG_OF_PERICENTER": 298.0236, "MEAN_ANOMALY": 129.1206, "EPHEMERIS_TYPE": 0, "CLASSIFICATION_TYPE": "U", "NORAD_CAT_ID": 28054, "ELEMENT_SET_NO": 999, "REV_AT_EPOCH": 14414, "BSTAR": 6.8286002e-05, "MEAN_MOTION_DOT": 8.5e-07, "MEAN_MOTION_DDOT": 0}, "tle": {"line1": "1 28054U 03048A   25353.91678035  .00000085  00000+0  68286-4 0  9997", "line2": "2 28054  99.0039  11.4301 0006303 298.0236 129.1206 14.14426642144142"}}, "geometry": {"type": "Point", "coordinates": [30.77820640354903, -63.972354432571564]}}, {"type": "Feature", "properties": {"norad_id": 28912, "name": "METEOSAT-9 (MSG-2)", "group": "weather", "lat": -1.6494179283511634, "lon": -113.68785641179663, "alt_km": 35794.85626912866, "timestamp": "2025-12-20T07:33:50.443363+00:00", "meta": {"OBJECT_NAME": "METEOSAT-9 (MSG-2)", "OBJECT_ID": "2005-049B", "EPOCH": "2025-12-18T20:21:29.033280", "MEAN_MOTION": 1.00264866, "ECCENTRICITY": 0.0082047, "INCLINATION": 8.9417, "RA_OF_ASC_NODE": 55.9014, "ARG_OF_PERICENTER": 282.314, "MEAN_ANOMALY": 99.6592, "EPHEMERIS_TYPE": 0, "CLASSIFICATION_TYPE": "U", "NORAD_CAT_ID": 28912, "ELEMENT_SET_NO": 999, "REV_AT_EPOCH": 519, "BSTAR": 0, "MEAN_MOTION_DOT": 1.45e-06, "MEAN_MOTION_DDOT": 0}, "tle": {"line1": "1 28912U 05049B   25352.84825270  .00000145  00000+0  00000+0 0  9991", "line2": "2 28912   8.9417  55.9014 0082047 282.3140  99.6592  1.00264866  5196"}}, "geometry": {"type": "Point", "coordinates": [-113.68785641179663, -1.6494179283511634]}}, {"type": "Feature", "properties": {"norad_id": 29522, "name": "DMSP 5D-3 F17 (USA 191)", "group": "weather", "lat": -66.78645780889553, "lon": 158.52954184151673, "alt_km": 844.943307969409, "timestamp": "2025-12-20T07:33:50.443387+00:00", "meta": {"OBJECT_NAME": "DMSP 5D-3 F17 (USA 191)", "OBJECT_ID": "2006-050A", "EPOCH": "2025-12-19T21:54:29.106432", "MEAN_MOTION": 14.14922582, "ECCENTRICITY": 0.00097036, "INCLINATION": 98.739, "RA_OF_ASC_NODE": 359.1526, "ARG_OF_PERICENTER": 203.2135, "MEAN_ANOMALY": 156.8602, "EPHEMERIS_TYPE": 0, "CLASSIFICATION_TYPE": "U", "NORAD_CAT_ID": 29522, "ELEMENT_SET_NO": 999, "REV_AT_EPOCH": 98706, "BSTAR": 8.716928e-05, "MEAN_MOTION_DOT": 1.25e-06, "MEAN_MOTION_DDOT": 0}, "tle": {"line1": "1 29522U 06050A   25353.91283688  .00000125  00000+0  87169-4 0  9996", "line2": "2 29522  98.7390 359.1526 0009703 203.2135 156.8602 14.14922582987060"}}, "geometry": {"type": "Point", "coordinates": [158.52954184151673, -66.78645780889553]}}, {"type": "Feature", "properties": {"norad_id": 32958, "name": "FENGYUN 3A", "group": "weather", "lat": 80.95030163076335, "lon": -139.6623291494534, "alt_km": 824.7741390748524, "timestamp": "2025-12-20T07:33:50.443402+00:00", "meta": {"OBJECT_NAME": "FENGYUN 3A", "OBJECT_ID": "2008-026A", "EPOCH": "2025-12-19T14:14:12.505056", "MEAN_MOTION": 14.19516596, "ECCENTRICITY": 0.0007684, "INCLINATION": 98.6705, "RA_OF_ASC_NODE": 292.9758, "ARG_OF_PERICENTER": 288.4847, "MEAN_ANOMALY": 71.5494, "EPHEMERIS_TYPE": 0, "CLASSIFICATION_TYPE": "U", "NORAD_CAT_ID": 32958, "ELEMENT_SET_NO": 999, "REV_AT_EPOCH": 90992, "BSTAR": 5.2028e-05, "MEAN_MOTION_DOT": 6.6e-07, "MEAN_MOTION_DDOT": 0}, "tle": {"line1": "1 32958U 08026A   25353.59320029  .00000066  00000+0  52028-4 0  9993", "line2": "2 32958  98.6705 292.9758 0007684 288.4847  71.5494 14.19516596909928"}}, "geometry": {"type": "Point", "coordinates": [-139.6623291494534, 80.95030163076335]}}, {"type": "Feature", "properties": {"norad_id": 35491, "name": "GOES 14", "group": "weather", "lat": 0.08612046024889525, "lon": 88.06658844986309, "alt_km": 35837.336808191634, "timestamp": "2025-12-20T07:33:50.443418+00:00", "meta": {"OBJECT_NAME": "GOES 14", "OBJECT_ID": "2009-033A", "EPOCH": "2025-12-19T11:12:46.867104", "MEAN_MOTION": 1.00096833, "ECCENTRICITY": 5.13e-05, "INCLINATION": 1.2203, "RA_OF_ASC_NODE": 85.3391, "ARG_OF_PERICENTER": 179.3818, "MEAN_ANOMALY": 237.7883, "EPHEMERIS_TYPE": 0, "CLASSIFICATION_TYPE": "U", "NORAD_CAT_ID": 35491, "ELEMENT_SET_NO": 999, "REV_AT_EPOCH": 479, "BSTAR": 0, "MEAN_MOTION_DOT": 1.8e-07, "MEAN_MOTION_DDOT": 0}, "tle": {"line1": "1 35491U 09033A   25353.46720911  .00000018  00000+0  00000+0 0  9992", "line2": "2 35491   1.2203  85.3391 0000513 179.3818 237.7883  1.00096833  4795"}}, "geometry": {"type": "Point", "coordinates": [88.06658844986309, 0.08612046024889525]}}, {"type": "Feature", "properties": {"norad_id": 35951, "name": "DMSP 5D-3 F18 (USA 210)", "group": "weather", "lat": 66.47477827489453, "lon": 171.73466041263833, "alt_km": 833.4894547002887, "timestamp": "2025-12-20T07:33:50.443431+00:00", "meta": {"OBJECT_NAME": "DMSP 5D-3 F18 (USA 210)", "OBJECT_ID": "2009-057A", "EPOCH": "2025-12-19T22:33:06.104736", "MEAN_MOTION": 14.14773719, "ECCENTRICITY": 0.00118934, "INCLINATION": 98.8841, "RA_OF_ASC_NODE": 330.3046, "ARG_OF_PERICENTER": 43.8068, "MEAN_ANOMALY": 316.4047, "EPHEMERIS_TYPE": 0, "CLASSIFICATION_TYPE": "U", "NORAD_CAT_ID": 35951, "ELEMENT_SET_NO": 999, "REV_AT_EPOCH": 83424, "BSTAR": 0.00013015064, "MEAN_MOTION_DOT": 2.07e-06, "MEAN_MOTION_DDOT": 0}, "tle": {"line1": "1 35951U 09057A   25353.93965399  .00000207  00000+0  13015-3 0  9996", "line2": "2 35951  98.8841 330.3046 0011893  43.8068 316.4047 14.14773719834243"}}, "geometry": {"type": "Point", "coordinates": [171.73466041263833, 66.47477827489453]}}, {"type": "Feature", "properties": {"norad_id": 36411, "name": "EWS-G2 (GOES 15)", "group": "weather", "lat": 0.0029085651370457035, "lon": -96.03056630876763, "alt_km": 35763.12653087124, "timestamp": "2025-12-20T07:33:50.443445+00:00", "meta": {"OBJECT_NAME": "EWS-G2 (GOES 15)", "OBJECT_ID": "2010-008A", "EPOCH": "2025-12-19T20:34:05.392704", "MEAN_MOTION": 1.00270915, "ECCENTRICITY": 0.00054664, "INCLINATION": 0.8304, "RA_OF_ASC_NODE": 86.0831, "ARG_OF_PERICENTER": 177.2487, "MEAN_ANOMALY": 195.2571, "EPHEMERIS_TYPE": 0, "CLASSIFICATION_TYPE": "U", "NORAD_CAT_ID": 36411, "ELEMENT_SET_NO": 999, "REV_AT_EPOCH": 5784, "BSTAR": 0, "MEAN_MOTION_DOT": 6.2e-07, "MEAN_MOTION_DDOT": 0}, "tle": {"line1": "1 36411U 10008A   25353.85700686  .00000062  00000+0  00000+0 0  9998", "line2": "2 36411   0.8304  86.0831 0005466 177.2487 195.2571  1.00270915 57844"}}, "geometry": {"type": "Point", "coordinates": [-96.03056630876763, 0.0029085651370457035]}}, {"type": "Feature", "properties": {"norad_id": 36744, "name": "COMS 1", "group": "weather", "lat": -4.179114747641677, "lon": -29.256035671630006, "alt_km": 35784.69650667592, "timestamp": "2025-12-20T07:33:50.443458+00:00", "meta": {"OBJECT_NAME": "COMS 1", "OBJECT_ID": "2010-032A", "EPOCH": "2025-12-19T21:07:51.684384", "MEAN_MOTION": 1.00272527, "ECCENTRICITY": 6.759e-05, "INCLINATION": 4.3565, "RA_OF_ASC_NODE": 77.9191, "ARG_OF_PERICENTER": 201.7497, "MEAN_ANOMALY": 254.194, "EPHEMERIS_TYPE": 0, "CLASSIFICATION_TYPE": "U", "NORAD_CAT_ID": 36744, "ELEMENT_SET_NO": 999, "REV_AT_EPOCH": 4929, "BSTAR": 0, "MEAN_MOTION_DOT": -3.23e-06, "MEAN_MOTION_DDOT": 0}, "tle": {"line1": "1 36744U 10032A   25353.88045931 -.00000323  00000+0  00000+0 0  9993", "line2": "2 36744   4.3565  77.9191 0000675 201.7497 254.1940  1.00272527 49296"}}, "geometry": {"type": "Point", "coordinates": [-29.256035671630006, -4.179114747641677]}}, {"type": "Feature", "properties": {"norad_id": 37214, "name": "FENGYUN 3B", "group": "weather", "lat": 74.29196147649098, "lon": 0.08876585650159513, "alt_km": 838.8357095816136, "timestamp": "2025-12-20T07:33:50.443470+00:00", "meta": {"OBJECT_NAME": "FENGYUN 3B", "OBJECT_ID": "2010-059A", "EPOCH": "2025-12-19T23:16:42.206016", "MEAN_MOTION": 14.14791901, "ECCENTRICITY": 0.00217026, "INCLINATION": 98.9902, "RA_OF_ASC_NODE": 33.9978, "ARG_OF_PERICENTER": 337.1336, "MEAN_ANOMALY": 142.3284, "EPHEMERIS_TYPE": 0, "CLASSIFICATION_TYPE": "U", "NORAD_CAT_ID": 37214, "ELEMENT_SET_NO": 999, "REV_AT_EPOCH": 78208, "BSTAR": 4.709443e-05, "MEAN_MOTION_DOT": 4.5e-07, "MEAN_MOTION_DDOT": 0}, "tle": {"line1": "1 37214U 10059A   25353.96993294  .00000045  00000+0  47094-4 0  9997", "line2": "2 37214  98.9902  33.9978 0021702 337.1336 142.3284 14.14791901782089"}}, "geometry": {"type": "Point", "coordinates": [0.08876585650159513, 74.29196147649098]}}, {"type": "Feature", "properties": {"norad_id": 37849, "name": "SUOMI NPP", "group": "weather", "lat": 45.38843181056881, "lon": -77.42242429651084, "alt_km": 822.1219083992892, "timestamp": "2025-12-20T07:33:50.443482+00:00", "meta": {"OBJECT_NAME": "SUOMI NPP", "OBJECT_ID": "2011-061A", "EPOCH": "2025-12-17T23:31:21.474624", "MEAN_MOTION": 14.19515682, "ECCENTRICITY": 0.00023932, "INCLINATION": 98.7779, "RA_OF_ASC_NODE": 289.2746, "ARG_OF_PERICENTER": 111.1248, "MEAN_ANOMALY": 249.0184, "EPHEMERIS_TYPE": 0, "CLASSIFICATION_TYPE": "U", "NORAD_CAT_ID": 37849, "ELEMENT_SET_NO": 999, "REV_AT_EPOCH": 73273, "BSTAR": 4.8615036e-05, "MEAN_MOTION_DOT": 5.8e-07, "MEAN_MOTION_DDOT": 0}, "tle": {"line1": "1 37849U 11061A   25351.98010966  .00000058  00000+0  48615-4 0  9995", "line2": "2 37849  98.7779 289.2746 0002393 111.1248 249.0184 14.19515682732735"}}, "geometry": {"type": "Point", "coordinates": [-77.42242429651084, 45.38843181056881]}}]}